ONEWEB-0668             
1 56711U 23068B   24238.58705245  .00000190  00000+0  46230-3 0  9991
2 56711  87.9151   0.3099 0002459 101.2824 258.8584 13.16600407 64853
ONEWEB-0676             
1 56712U 23068C   24238.56726966  .00000274  00000+0  68419-3 0  9999
2 56712  87.9158   0.3247 0001503  82.5394 277.5908 13.16597120 64774
ONEWEB-0677             
1 56713U 23068D   24238.43600622  .00000077  00000+0  15643-3 0  9998
2 56713  87.9190  45.8975 0001904  83.4430 276.6920 13.20771916 62582
ONEWEB-0678             
1 56714U 23068E   24238.37391963 -.00000051  00000+0 -16907-3 0  9995
2 56714  87.9061  30.6582 0001406  97.9881 262.1409 13.15548540 62405
ONEWEB-0679             
1 56715U 23068F   24238.61238612 -.00000305  00000+0 -83138-3 0  9996
2 56715  87.9155   0.3169 0002320  85.4008 274.7388 13.16593765 64805
ONEWEB-0680             
1 56716U 23068G   24238.79748380  .00000060  00000+0  11494-3 0  9996
2 56716  87.9332  15.4911 0002579  98.7696 261.3730 13.21822282 64551
ONEWEB-0681             
1 56717U 23068H   24238.42926707  .00000074  00000+0  14760-3 0  9992
2 56717  87.9328  15.5433 0001873  61.1600 298.9722 13.21827467 63794
ONEWEB-0682             
1 56718U 23068J   24238.40006686  .00000135  00000+0  32402-3 0  9997
2 56718  87.9055  30.6927 0002309  91.8902 268.2493 13.15548589 62576
