<?xml version="1.0" encoding="UTF-8"?>
<ndm xmlns:xsi="http://www.w3.org/2001/XMLSchema-instance" xsi:noNamespaceSchemaLocation="https://sanaregistry.org/r/ndmxml_unqualified/ndmxml-2.0.0-master-2.0.xsd">
<omm id="CCSDS_OMM_VERS" version="2.0">
<header><CREATION_DATE/><ORIGINATOR/></header><body><segment><metadata><OBJECT_NAME>ONEWEB-0668</OBJECT_NAME><OBJECT_ID>2023-068B</OBJECT_ID><CENTER_NAME>EARTH</CENTER_NAME><REF_FRAME>TEME</REF_FRAME><TIME_SYSTEM>UTC</TIME_SYSTEM><MEAN_ELEMENT_THEORY>SGP4</MEAN_ELEMENT_THEORY></metadata><data><meanElements><EPOCH>2024-08-25T14:05:21.331680</EPOCH><MEAN_MOTION>13.16600407</MEAN_MOTION><ECCENTRICITY>.0002459</ECCENTRICITY><INCLINATION>87.9151</INCLINATION><RA_OF_ASC_NODE>0.3099</RA_OF_ASC_NODE><ARG_OF_PERICENTER>101.2824</ARG_OF_PERICENTER><MEAN_ANOMALY>258.8584</MEAN_ANOMALY></meanElements><tleParameters><EPHEMERIS_TYPE>0</EPHEMERIS_TYPE><CLASSIFICATION_TYPE>U</CLASSIFICATION_TYPE><NORAD_CAT_ID>56711</NORAD_CAT_ID><ELEMENT_SET_NO>999</ELEMENT_SET_NO><REV_AT_EPOCH>6485</REV_AT_EPOCH><BSTAR>.4623E-3</BSTAR><MEAN_MOTION_DOT>.19E-5</MEAN_MOTION_DOT><MEAN_MOTION_DDOT>0</MEAN_MOTION_DDOT></tleParameters></data></segment></body></omm>
<omm id="CCSDS_OMM_VERS" version="2.0">
<header><CREATION_DATE/><ORIGINATOR/></header><body><segment><metadata><OBJECT_NAME>ONEWEB-0676</OBJECT_NAME><OBJECT_ID>2023-068C</OBJECT_ID><CENTER_NAME>EARTH</CENTER_NAME><REF_FRAME>TEME</REF_FRAME><TIME_SYSTEM>UTC</TIME_SYSTEM><MEAN_ELEMENT_THEORY>SGP4</MEAN_ELEMENT_THEORY></metadata><data><meanElements><EPOCH>2024-08-25T13:36:52.098624</EPOCH><MEAN_MOTION>13.16597120</MEAN_MOTION><ECCENTRICITY>.0001503</ECCENTRICITY><INCLINATION>87.9158</INCLINATION><RA_OF_ASC_NODE>0.3247</RA_OF_ASC_NODE><ARG_OF_PERICENTER>82.5394</ARG_OF_PERICENTER><MEAN_ANOMALY>277.5908</MEAN_ANOMALY></meanElements><tleParameters><EPHEMERIS_TYPE>0</EPHEMERIS_TYPE><CLASSIFICATION_TYPE>U</CLASSIFICATION_TYPE><NORAD_CAT_ID>56712</NORAD_CAT_ID><ELEMENT_SET_NO>999</ELEMENT_SET_NO><REV_AT_EPOCH>6477</REV_AT_EPOCH><BSTAR>.68419E-3</BSTAR><MEAN_MOTION_DOT>.274E-5</MEAN_MOTION_DOT><MEAN_MOTION_DDOT>0</MEAN_MOTION_DDOT></tleParameters></data></segment></body></omm>
<omm id="CCSDS_OMM_VERS" version="2.0">
<header><CREATION_DATE/><ORIGINATOR/></header><body><segment><metadata><OBJECT_NAME>ONEWEB-0677</OBJECT_NAME><OBJECT_ID>2023-068D</OBJECT_ID><CENTER_NAME>EARTH</CENTER_NAME><REF_FRAME>TEME</REF_FRAME><TIME_SYSTEM>UTC</TIME_SYSTEM><MEAN_ELEMENT_THEORY>SGP4</MEAN_ELEMENT_THEORY></metadata><data><meanElements><EPOCH>2024-08-25T10:27:50.937408</EPOCH><MEAN_MOTION>13.20771916</MEAN_MOTION><ECCENTRICITY>.0001904</ECCENTRICITY><INCLINATION>87.9190</INCLINATION><RA_OF_ASC_NODE>45.8975</RA_OF_ASC_NODE><ARG_OF_PERICENTER>83.4430</ARG_OF_PERICENTER><MEAN_ANOMALY>276.6920</MEAN_ANOMALY></meanElements><tleParameters><EPHEMERIS_TYPE>0</EPHEMERIS_TYPE><CLASSIFICATION_TYPE>U</CLASSIFICATION_TYPE><NORAD_CAT_ID>56713</NORAD_CAT_ID><ELEMENT_SET_NO>999</ELEMENT_SET_NO><REV_AT_EPOCH>6258</REV_AT_EPOCH><BSTAR>.15643E-3</BSTAR><MEAN_MOTION_DOT>.77E-6</MEAN_MOTION_DOT><MEAN_MOTION_DDOT>0</MEAN_MOTION_DDOT></tleParameters></data></segment></body></omm>
<omm id="CCSDS_OMM_VERS" version="2.0">
<header><CREATION_DATE/><ORIGINATOR/></header><body><segment><metadata><OBJECT_NAME>ONEWEB-0678</OBJECT_NAME><OBJECT_ID>2023-068E</OBJECT_ID><CENTER_NAME>EARTH</CENTER_NAME><REF_FRAME>TEME</REF_FRAME><TIME_SYSTEM>UTC</TIME_SYSTEM><MEAN_ELEMENT_THEORY>SGP4</MEAN_ELEMENT_THEORY></metadata><data><meanElements><EPOCH>2024-08-25T08:58:26.656032</EPOCH><MEAN_MOTION>13.15548540</MEAN_MOTION><ECCENTRICITY>.0001406</ECCENTRICITY><INCLINATION>87.9061</INCLINATION><RA_OF_ASC_NODE>30.6582</RA_OF_ASC_NODE><ARG_OF_PERICENTER>97.9881</ARG_OF_PERICENTER><MEAN_ANOMALY>262.1409</MEAN_ANOMALY></meanElements><tleParameters><EPHEMERIS_TYPE>0</EPHEMERIS_TYPE><CLASSIFICATION_TYPE>U</CLASSIFICATION_TYPE><NORAD_CAT_ID>56714</NORAD_CAT_ID><ELEMENT_SET_NO>999</ELEMENT_SET_NO><REV_AT_EPOCH>6240</REV_AT_EPOCH><BSTAR>-.16907E-3</BSTAR><MEAN_MOTION_DOT>-.51E-6</MEAN_MOTION_DOT><MEAN_MOTION_DDOT>0</MEAN_MOTION_DDOT></tleParameters></data></segment></body></omm>
<omm id="CCSDS_OMM_VERS" version="2.0">
<header><CREATION_DATE/><ORIGINATOR/></header><body><segment><metadata><OBJECT_NAME>ONEWEB-0679</OBJECT_NAME><OBJECT_ID>2023-068F</OBJECT_ID><CENTER_NAME>EARTH</CENTER_NAME><REF_FRAME>TEME</REF_FRAME><TIME_SYSTEM>UTC</TIME_SYSTEM><MEAN_ELEMENT_THEORY>SGP4</MEAN_ELEMENT_THEORY></metadata><data><meanElements><EPOCH>2024-08-25T14:41:50.160768</EPOCH><MEAN_MOTION>13.16593765</MEAN_MOTION><ECCENTRICITY>.000232</ECCENTRICITY><INCLINATION>87.9155</INCLINATION><RA_OF_ASC_NODE>0.3169</RA_OF_ASC_NODE><ARG_OF_PERICENTER>85.4008</ARG_OF_PERICENTER><MEAN_ANOMALY>274.7388</MEAN_ANOMALY></meanElements><tleParameters><EPHEMERIS_TYPE>0</EPHEMERIS_TYPE><CLASSIFICATION_TYPE>U</CLASSIFICATION_TYPE><NORAD_CAT_ID>56715</NORAD_CAT_ID><ELEMENT_SET_NO>999</ELEMENT_SET_NO><REV_AT_EPOCH>6480</REV_AT_EPOCH><BSTAR>-.83138E-3</BSTAR><MEAN_MOTION_DOT>-.305E-5</MEAN_MOTION_DOT><MEAN_MOTION_DDOT>0</MEAN_MOTION_DDOT></tleParameters></data></segment></body></omm>
<omm id="CCSDS_OMM_VERS" version="2.0">
<header><CREATION_DATE/><ORIGINATOR/></header><body><segment><metadata><OBJECT_NAME>ONEWEB-0680</OBJECT_NAME><OBJECT_ID>2023-068G</OBJECT_ID><CENTER_NAME>EARTH</CENTER_NAME><REF_FRAME>TEME</REF_FRAME><TIME_SYSTEM>UTC</TIME_SYSTEM><MEAN_ELEMENT_THEORY>SGP4</MEAN_ELEMENT_THEORY></metadata><data><meanElements><EPOCH>2024-08-25T19:08:22.600320</EPOCH><MEAN_MOTION>13.21822282</MEAN_MOTION><ECCENTRICITY>.0002579</ECCENTRICITY><INCLINATION>87.9332</INCLINATION><RA_OF_ASC_NODE>15.4911</RA_OF_ASC_NODE><ARG_OF_PERICENTER>98.7696</ARG_OF_PERICENTER><MEAN_ANOMALY>261.3730</MEAN_ANOMALY></meanElements><tleParameters><EPHEMERIS_TYPE>0</EPHEMERIS_TYPE><CLASSIFICATION_TYPE>U</CLASSIFICATION_TYPE><NORAD_CAT_ID>56716</NORAD_CAT_ID><ELEMENT_SET_NO>999</ELEMENT_SET_NO><REV_AT_EPOCH>6455</REV_AT_EPOCH><BSTAR>.11494E-3</BSTAR><MEAN_MOTION_DOT>.6E-6</MEAN_MOTION_DOT><MEAN_MOTION_DDOT>0</MEAN_MOTION_DDOT></tleParameters></data></segment></body></omm>
<omm id="CCSDS_OMM_VERS" version="2.0">
<header><CREATION_DATE/><ORIGINATOR/></header><body><segment><metadata><OBJECT_NAME>ONEWEB-0681</OBJECT_NAME><OBJECT_ID>2023-068H</OBJECT_ID><CENTER_NAME>EARTH</CENTER_NAME><REF_FRAME>TEME</REF_FRAME><TIME_SYSTEM>UTC</TIME_SYSTEM><MEAN_ELEMENT_THEORY>SGP4</MEAN_ELEMENT_THEORY></metadata><data><meanElements><EPOCH>2024-08-25T10:18:08.674848</EPOCH><MEAN_MOTION>13.21827467</MEAN_MOTION><ECCENTRICITY>.0001873</ECCENTRICITY><INCLINATION>87.9328</INCLINATION><RA_OF_ASC_NODE>15.5433</RA_OF_ASC_NODE><ARG_OF_PERICENTER>61.1600</ARG_OF_PERICENTER><MEAN_ANOMALY>298.9722</MEAN_ANOMALY></meanElements><tleParameters><EPHEMERIS_TYPE>0</EPHEMERIS_TYPE><CLASSIFICATION_TYPE>U</CLASSIFICATION_TYPE><NORAD_CAT_ID>56717</NORAD_CAT_ID><ELEMENT_SET_NO>999</ELEMENT_SET_NO><REV_AT_EPOCH>6379</REV_AT_EPOCH><BSTAR>.1476E-3</BSTAR><MEAN_MOTION_DOT>.74E-6</MEAN_MOTION_DOT><MEAN_MOTION_DDOT>0</MEAN_MOTION_DDOT></tleParameters></data></segment></body></omm>
<omm id="CCSDS_OMM_VERS" version="2.0">
<header><CREATION_DATE/><ORIGINATOR/></header><body><segment><metadata><OBJECT_NAME>ONEWEB-0682</OBJECT_NAME><OBJECT_ID>2023-068J</OBJECT_ID><CENTER_NAME>EARTH</CENTER_NAME><REF_FRAME>TEME</REF_FRAME><TIME_SYSTEM>UTC</TIME_SYSTEM><MEAN_ELEMENT_THEORY>SGP4</MEAN_ELEMENT_THEORY></metadata><data><meanElements><EPOCH>2024-08-25T09:36:05.776704</EPOCH><MEAN_MOTION>13.15548589</MEAN_MOTION><ECCENTRICITY>.0002309</ECCENTRICITY><INCLINATION>87.9055</INCLINATION><RA_OF_ASC_NODE>30.6927</RA_OF_ASC_NODE><ARG_OF_PERICENTER>91.8902</ARG_OF_PERICENTER><MEAN_ANOMALY>268.2493</MEAN_ANOMALY></meanElements><tleParameters><EPHEMERIS_TYPE>0</EPHEMERIS_TYPE><CLASSIFICATION_TYPE>U</CLASSIFICATION_TYPE><NORAD_CAT_ID>56718</NORAD_CAT_ID><ELEMENT_SET_NO>999</ELEMENT_SET_NO><REV_AT_EPOCH>6257</REV_AT_EPOCH><BSTAR>.32402E-3</BSTAR><MEAN_MOTION_DOT>.135E-5</MEAN_MOTION_DOT><MEAN_MOTION_DDOT>0</MEAN_MOTION_DDOT></tleParameters></data></segment></body></omm>

</ndm>
